OBJECT_NAME,OBJECT_ID,EPOCH,MEAN_MOTION,ECCENTRICITY,INCLINATION,RA_OF_ASC_NODE,ARG_OF_PERICENTER,MEAN_ANOMALY,EPHEMERIS_TYPE,CLASSIFICATION_TYPE,NORAD_CAT_ID,ELEMENT_SET_NO,REV_AT_EPOCH,BSTAR,MEAN_MOTION_DOT,MEAN_MOTION_DDOT
STARLINK-3332,2022-001Y,2025-11-04T11:41:09.496608,15.08836698,.0001485,53.2197,11.1760,101.7942,258.3217,0,U,50825,999,21150,.58061E-4,.636E-5,0
STARLINK-3329,2022-001AA,2025-11-04T21:29:21.864480,15.08841206,.00011089,53.2187,9.3402,93.4902,266.6217,0,U,50827,999,21156,-.52792707E-4,-.1128E-4,0
STARLINK-3290,2022-001AB,2025-11-04T21:09:31.782240,15.08836445,.0001407,53.2177,9.2972,93.8370,266.2783,0,U,50828,999,21141,.7164357E-5,-.174E-5,0
STARLINK-3294,2022-001AC,2025-11-04T10:32:16.367712,15.08834824,.00009943,53.2177,11.3921,79.7970,280.3134,0,U,50829,999,21149,.69336453E-4,.816E-5,0
STARLINK-3278,2022-001AD,2025-11-04T14:08:12.164352,15.08845149,.0001621,53.2197,20.7173,96.3757,263.7420,0,U,50830,999,21138,.13264E-3,.1824E-4,0
STARLINK-3299,2022-001AE,2025-11-04T11:14:39.977664,15.08837806,.00011521,53.2179,11.3289,92.7557,267.3567,0,U,50831,999,21150,.1402489E-4,-.65E-6,0
STARLINK-3328,2022-001AF,2025-11-04T14:09:35.758944,15.08839362,.0001757,53.2204,20.7631,96.8260,263.2932,0,U,50832,999,21138,.85844E-6,-.274E-5,0
STARLINK-3331,2022-001AH,2025-11-04T21:43:56.558208,15.08837914,.00013357,53.2180,19.3028,90.2155,269.8991,0,U,50834,999,21142,.33902891E-4,.252E-5,0
STARLINK-3310,2022-001AJ,2025-11-04T21:49:15.432096,15.08839013,.00015212,53.2173,19.3956,86.1070,274.0096,0,U,50835,999,21142,.36034013E-4,.286E-5,0
STARLINK-3330,2022-001AK,2025-11-04T11:46:27.953184,15.08851415,.0001623,53.2185,20.9387,99.7963,260.3212,0,U,50836,999,21126,.11865E-3,.1601E-4,0
STARLINK-3318,2022-001AL,2025-11-04T20:52:15.249216,15.08846000,.00014523,53.2189,9.4600,87.1738,272.9421,0,U,50837,999,21156,-.67488688E-4,-.1362E-4,0
STARLINK-3322,2022-001AM,2025-11-05T08:00:03.000384,15.88017626,.00029409,53.1785,272.8751,85.2745,200.7734,0,U,50838,999,601,.99220932E-3,.283895E-2,0
STARLINK-3320,2022-001AN,2025-11-04T11:45:07.373088,15.08841178,.00014129,53.2183,21.1627,90.4191,269.6963,0,U,50839,999,21135,-.3365401E-5,-.342E-5,0
STARLINK-3295,2022-001AP,2025-11-04T14:50:35.605824,15.08842683,.0001257,53.2186,20.5856,97.2463,262.8672,0,U,50840,999,21137,.80114E-4,.987E-5,0
STARLINK-3300,2022-001AQ,2025-11-04T21:28:02.494848,15.08838451,.00014361,53.2181,19.3481,91.3030,268.8127,0,U,50841,999,21142,-.19876892E-4,-.604E-5,0
STARLINK-3302,2022-001AR,2025-11-04T11:34:31.413792,15.08841969,.00014057,53.2185,21.1964,93.4160,266.6993,0,U,50842,999,21135,-.33013749E-4,-.813E-5,0
STARLINK-3325,2022-001AS,2025-11-04T15:17:05.693280,15.08835639,.00010999,53.2184,20.5035,88.7323,271.3795,0,U,50843,999,21138,-.15665038E-4,-.537E-5,0
STARLINK-3326,2022-001AT,2025-11-04T22:26:19.793184,15.08841998,.00012623,53.2179,19.1652,86.9674,273.1462,0,U,50844,999,21143,.7957427E-5,-.161E-5,0
STARLINK-3230,2022-001AU,2025-11-04T21:54:32.037120,15.08844248,.00014763,53.2195,19.2648,86.5152,273.6009,0,U,50845,999,21143,.52746944E-4,.552E-5,0
STARLINK-3308,2022-001AV,2025-11-04T14:40:00.799104,15.08843200,.0001487,53.2183,20.7353,97.7520,262.3641,0,U,50846,999,21138,.3058E-4,.199E-5,0
STARLINK-3315,2022-001AX,2025-11-04T22:15:43.604928,15.08846650,.00013421,53.2187,19.1985,88.4434,271.6712,0,U,50848,999,21143,.21436496E-4,.53E-6,0
STARLINK-3311,2022-001AY,2025-11-04T11:23:56.000544,15.08826476,.00013012,53.2176,21.2333,93.9542,266.1599,0,U,50849,999,21136,.24403926E-3,.3597E-4,0
STARLINK-3312,2022-001AZ,2025-11-05T06:33:52.246368,15.08830315,.00014558,53.2181,337.6444,92.5600,267.5559,0,U,50850,999,21258,-.30456596E-4,-.772E-5,0
STARLINK-3314,2022-001BA,2025-11-04T14:02:53.585088,15.08842222,.000152,53.2189,20.6568,86.4334,273.6832,0,U,50851,999,21138,.4019E-4,.352E-5,0
ION SCV-004,2022-002K,2025-11-05T04:07:25.752576,15.27512894,.0009502,97.3187,6.0308,74.6147,285.6141,0,U,50993,999,21106,.26075107E-3,.6954E-4,0
HYPSO-1,2022-002BX,2025-11-05T06:23:57.366816,15.49699258,.00035988,97.3159,19.2101,46.0412,314.1136,0,U,51053,999,21201,.56276554E-3,.31197E-3,0
ETV-A1,2022-002CE,2025-11-05T06:22:30.577152,15.34867371,.00072249,97.3215,11.6963,76.7093,283.4956,0,U,51060,999,21142,.35385292E-3,.11899E-3,0
BRO-5,2022-002CF,2025-11-05T06:29:35.717856,15.39457589,.00073238,97.3304,17.0296,68.2665,291.9360,0,U,51061,999,21172,.33676097E-3,.13135E-3,0
ICEYE-X14,2022-002CQ,2025-11-05T05:59:50.571168,15.64905650,.0003011,97.3261,22.2184,160.9779,199.1594,0,U,51070,999,21209,.12456864E-2,.12319E-2,0
VZLUSAT-2,2022-002DF,2025-11-04T20:23:34.296000,15.87338072,.00028163,97.3121,27.9256,304.2560,55.8445,0,U,51085,999,21249,.10384197E-2,.27915E-2,0
SHIYAN-13 (SY-13),2022-004A,2025-11-05T07:10:25.557888,14.18919486,.06112394,98.4772,332.1112,126.0879,239.8506,0,U,51102,999,19552,.22045357E-3,.3261E-4,0
STARLINK-3366,2022-005A,2025-11-05T04:59:46.540320,15.08907287,.00014081,53.2156,127.9397,113.4076,246.7065,0,U,51104,999,21008,-.9849323E-3,-.15958E-3,0
STARLINK-3350,2022-005B,2025-11-04T18:50:23.148096,15.08839127,.00014254,53.2139,129.8392,90.3074,269.8081,0,U,51105,999,21002,.45473249E-4,.436E-5,0
STARLINK-3176,2022-005C,2025-11-04T18:18:35.693568,15.08839799,.0001444,53.2160,129.9387,86.5004,273.6153,0,U,51106,999,21001,.16561608E-4,-.24E-6,0
STARLINK-3362,2022-005E,2025-11-04T18:45:05.396544,15.08845563,.00014245,53.2120,129.8559,85.4369,274.6786,0,U,51108,999,21002,-.13779166E-4,-.507E-5,0
STARLINK-3358,2022-005F,2025-11-04T12:50:02.102784,15.08836239,.0001322,53.2141,130.9130,91.1263,268.9880,0,U,51109,999,20975,.23914E-4,.93E-6,0
STARLINK-3344,2022-005G,2025-11-05T05:36:53.616096,15.08844539,.00012175,53.2144,127.8049,88.8905,271.2226,0,U,51110,999,21009,.34380957E-3,.5189E-4,0
STARLINK-3173,2022-005H,2025-11-05T05:05:05.970624,15.08836344,.00014745,53.2171,127.9219,89.4722,270.6439,0,U,51111,999,21008,.36976643E-4,.301E-5,0
STARLINK-3374,2022-005J,2025-11-05T05:32:57.985152,15.08850252,.00011516,53.2159,127.8090,99.5560,260.5562,0,U,51112,999,21009,.1612339E-4,-.31E-6,0
STARLINK-3372,2022-005K,2025-11-05T05:20:59.684064,15.08840961,.00013485,53.2167,127.8732,87.7935,272.3211,0,U,51113,999,21008,.77672859E-4,.948E-5,0
STARLINK-3375,2022-005L,2025-11-05T05:47:29.180544,15.08840190,.00013961,53.2154,127.7911,95.4746,264.6405,0,U,51114,999,21009,.32778721E-4,.234E-5,0
STARLINK-3397,2022-005M,2025-11-05T05:10:24.210336,15.08836860,.00016005,53.2170,127.9053,89.9443,270.1732,0,U,51115,999,21008,.46346277E-4,.45E-5,0
STARLINK-3243,2022-005N,2025-11-05T05:27:41.029344,15.08838958,.00013399,53.2163,127.8246,84.2900,275.8245,0,U,51116,999,21008,.13981852E-3,.1938E-4,0
STARLINK-3391,2022-005P,2025-11-04T22:11:44.168064,15.08838818,.00012019,53.2140,129.1005,85.1333,274.9797,0,U,51117,999,21004,.18142225E-4,.1E-7,0
STARLINK-3394,2022-005Q,2025-11-05T05:15:43.149024,15.08829311,.00013682,53.2167,127.8899,83.1877,276.9271,0,U,51118,999,21008,.4571593E-4,.44E-5,0
STARLINK-3398,2022-005S,2025-11-04T19:02:23.735328,15.08832646,.00009331,53.2162,129.8124,80.3519,279.7578,0,U,51120,999,21002,-.41733685E-4,-.952E-5,0
STARLINK-3399,2022-005T,2025-11-05T04:55:52.755744,15.08838450,.00014413,53.2156,127.9610,88.6098,271.5059,0,U,51121,999,21008,.3156501E-4,.214E-5,0
STARLINK-3392,2022-005V,2025-11-04T18:55:41.251296,15.08839741,.00013275,53.2157,129.8224,90.6424,269.4720,0,U,51123,999,21002,.19066312E-4,.16E-6,0
STARLINK-3389,2022-005W,2025-11-05T05:30:15.436512,15.08876482,.00014733,53.2172,137.8453,101.5340,258.5818,0,U,51124,999,20995,-.61822644E-3,-.10123E-3,0
STARLINK-3387,2022-005X,2025-11-05T05:15:44.958240,15.08830055,.00014875,53.2148,137.8989,90.1649,269.9513,0,U,51125,999,20993,-.10325068E-3,-.193E-4,0
STARLINK-3386,2022-005Y,2025-11-04T19:54:02.284704,15.08834321,.00014755,53.2159,139.6513,90.6355,269.4806,0,U,51126,999,20989,-.1001017E-4,-.447E-5,0
STARLINK-3370,2022-005Z,2025-11-05T05:21:02.764224,15.08837554,.00014573,53.2145,137.8833,85.1666,274.9493,0,U,51127,999,20994,-.13738667E-4,-.507E-5,0
STARLINK-3400,2022-005AA,2025-11-04T19:20:51.088704,15.08867684,.00017851,53.2146,139.7423,82.8173,277.3022,0,U,51128,999,20987,-.64284168E-3,-.10512E-3,0
STARLINK-3396,2022-005AB,2025-11-05T05:31:39.103680,15.08835477,.00015178,53.2159,137.8407,91.8178,268.2989,0,U,51129,999,20994,.30094468E-4,.191E-5,0
STARLINK-3395,2022-005AC,2025-11-04T19:36:45.657504,15.08842070,.00015961,53.2157,139.6949,91.5487,268.5688,0,U,51130,999,20987,-.24370745E-4,-.676E-5,0
STARLINK-3388,2022-005AD,2025-11-04T13:04:36.278112,15.08850801,.0001361,53.2147,140.9172,87.8883,272.2265,0,U,51131,999,20983,-.24943E-3,-.4257E-4,0
STARLINK-3393,2022-005AE,2025-11-04T19:31:28.022592,15.08832175,.00013139,53.2148,139.7106,87.3119,272.8023,0,U,51132,999,20987,.84085779E-4,.105E-4,0
STARLINK-3356,2022-005AF,2025-11-05T06:23:15.535392,15.08839659,.00015311,53.2159,137.6793,95.5495,264.5672,0,U,51133,999,20994,.2876192E-4,.17E-5,0
STARLINK-3183,2022-005AG,2025-11-05T08:00:03.000384,15.85504839,.0000344,53.2143,118.0612,45.9302,185.6958,0,U,51134,999,580,.54215048E-2,.1509563E-1,0
STARLINK-3363,2022-005AH,2025-11-05T06:03:25.405632,15.08840861,.00013607,53.2173,137.6388,86.5751,273.5397,0,U,51135,999,20994,.3625235E-4,.289E-5,0
STARLINK-3253,2022-005AJ,2025-11-05T05:51:26.072064,15.08841432,.0001538,53.2165,137.5757,90.4290,269.6879,0,U,51136,999,20994,-.77580364E-4,-.1523E-4,0
STARLINK-3180,2022-005AK,2025-11-05T06:02:03.793056,15.08838851,.00015323,53.2161,137.7465,87.1698,272.9469,0,U,51137,999,20995,.37175603E-4,.304E-5,0
STARLINK-3177,2022-005AL,2025-11-05T06:12:40.465152,15.08836489,.00007102,53.2165,137.7148,41.4147,318.6899,0,U,51138,999,20994,.24754351E-3,.3654E-4,0
STARLINK-3172,2022-005AM,2025-11-05T05:52:51.289248,15.08826409,.0001385,53.2166,137.7836,95.6302,264.4848,0,U,51139,999,20995,.14202389E-3,.1972E-4,0
